RAVAN                   
1 41849U 16067B   23184.42621853  .00005391  00000+0  37263-3 0  9996
2 41849  98.0386 339.5469 0017275 131.2864 228.9852 15.06062888363213
CELTEE 1                
1 41850U 16067C   23184.34021499  .00003129  00000+0  24512-3 0  9999
2 41850  98.0676 333.0957 0002357 130.3169 229.8261 15.01791254362844
OPTICUBE 04             
1 41851U 16067D   23183.67854540  .00002295  00000+0  19018-3 0  9994
2 41851  98.0446 330.5137 0013668 143.1538 217.0626 14.99848309362654
AEROCUBE 8D             
1 41852U 16067E   23184.37332237  .00003976  00000+0  30707-3 0  9992
2 41852  98.0656 332.2432 0005505 194.9126 165.1936 15.02153943362793
AEROCUBE 8C             
1 41853U 16067F   23183.36783461  .00004238  00000+0  32773-3 0  9997
2 41853  98.0459 330.6970 0009123 137.0134 223.1803 15.02041917362639
PROMETHEUS 2-1          
1 41854U 16067G   23183.38077256  .00006719  00000+0  46560-3 0  9993
2 41854  98.0682 333.8429 0017257 162.9982 197.1825 15.05870664362778
PROMETHEUS 2-3          
1 41855U 16067H   23184.37082833  .00007915  00000+0  54802-3 0  9998
2 41855  98.0611 334.7210 0014755 168.7415 191.4144 15.05873728362926
INS-1B                  
1 41954U 17008G   23184.13499020  .00068510  00000+0  84501-3 0  9995
2 41954  97.1975 244.9663 0002649 258.6860 101.4100 15.59960901355367
DIDO-2                  
1 42000U 17008BE  23184.67341889  .00014178  00000+0  35136-3 0  9997
2 42000  97.1996 240.4926 0004583 349.9186  10.1968 15.40490335354478
PEASSS                  
1 42015U 17008BV  23184.13345341  .00042366  00000+0  65896-3 0  9997
2 42015  97.2057 247.6760 0001760 300.7615  59.3465 15.53806422355339
AL-FARABI 1             
1 42016U 17008BW  23184.74385781  .00342203  44346-4  12457-2 0  9990
2 42016  97.2057 256.7150 0006693 234.6509 125.4138 15.88420930356046
NAYIF-1 (EO-88)         
1 42017U 17008BX  23184.16573880  .00446357  79637-4  12933-2 0  9991
2 42017  97.2012 256.4092 0007928 240.2510 119.7977 15.92903540356008
UCLSAT                  
1 42765U 17036A   23184.37517451  .00048197  00000+0  75998-3 0  9991
2 42765  97.1394 223.2295 0004850  55.5021 304.6691 15.53388849335801
AALTO-1                 
1 42775U 17036L   23184.35909565  .00014469  00000+0  41232-3 0  9990
2 42775  97.1501 213.9400 0010856  57.3095 302.9195 15.36122312335004
URSA MAIOR              
1 42776U 17036M   23184.59634743  .00017507  00000+0  46658-3 0  9993
2 42776  97.1511 215.5582 0010212  53.7584 306.4604 15.38171986335113
DIAMOND RED             
1 42783U 17036U   23183.63278538  .00022050  00000+0  52852-3 0  9993
2 42783  97.1490 217.9966 0008612  61.7844 298.4272 15.41382259335176
PEGASUS                 
1 42784U 17036V   23184.63278478  .00035359  00000+0  65941-3 0  9997
2 42784  97.1443 221.8606 0006737  54.6545 305.5335 15.48702979335526
DIAMOND GREEN           
1 42785U 17036W   23184.59616098  .00023793  00000+0  54846-3 0  9998
2 42785  97.1479 219.1686 0008142  60.9482 299.2581 15.42547347335326
DIAMOND BLUE            
1 42786U 17036X   23183.97692693  .00023632  00000+0  55375-3 0  9995
2 42786  97.1484 218.4928 0008451  61.1941 299.0155 15.42053690335227
SUCHAI                  
1 42788U 17036Z   23184.08806808  .00073644  00000+0  89782-3 0  9992
2 42788  97.1413 225.3456 0004008  61.3360 298.8300 15.60243513335779
SKCUBE                  
1 42789U 17036AA  23172.81992585  .00056631  00000+0  91963-3 0  9990
2 42789  97.1418 212.3911 0007496  86.3828 273.8283 15.52514419333832
ROBUSTA 1B              
1 42792U 17036AD  23184.08269319  .00065465  00000+0  87310-3 0  9994
2 42792  97.1396 224.9432 0003735  59.8364 300.3262 15.57890034335683
CICERO 6                
1 42793U 17036AE  23184.39987964  .00018472  00000+0  46975-3 0  9990
2 42793  97.1474 218.8387 0007923  60.6536 299.5501 15.39622861335390
CORVUS BC2              
1 42846U 17042X   23184.52881814  .00001524  00000+0  14481-3 0  9995
2 42846  97.3854  24.7552 0009639 148.9591 211.2201 14.94808577325160
CORVUS BC1              
1 42847U 17042Y   23184.51906499  .00002307  00000+0  21618-3 0  9992
2 42847  97.3852  25.1033 0009530 147.2346 212.9468 14.94903132325175
MIRATA                  
1 43015U 17073C   23184.63796797  .00011852  00000+0  73731-3 0  9993
2 43015  97.6330  71.9243 0209822   0.5292 359.6111 14.93241744303944
MAKERSAT 0              
1 43016U 17073D   23184.65207180  .00008615  00000+0  57570-3 0  9995
2 43016  97.6310  69.9417 0225196  10.1752 350.3912 14.88757461303751
CORVUS BC3              
1 43118U 18004H   23184.72776806  .00016633  00000+0  42938-3 0  9998
2 43118  97.3246 259.0505 0008236  91.0392 269.1798 15.39186304304581
CICERO 7                
1 43143U 18004AJ  23184.24107349  .00048962  00000+0  67678-3 0  9991
2 43143  97.3388 271.3257 0003458  85.0973 275.0677 15.56998030305259
GOMX-4B                 
1 43196U 18015E   23183.96760837  .00013174  00000+0  36574-3 0  9994
2 43196  97.5798 335.3280 0015092 147.0801 213.1386 15.36918161301371
GOMX-4A                 
1 43197U 18015F   23184.65310903  .00015373  00000+0  38184-3 0  9999
2 43197  97.5797 338.2174 0014391 139.9086 220.3224 15.40317891301639
AEROCUBE 12B            
1 43557U 18046D   23183.98287773  .00173724  00000+0  92942-3 0  9993
2 43557  51.6232 104.4341 0002346  48.3296 311.7905 15.79285844278207
CUBEBEL-1 (BSUSAT-1)    
1 43666U 18083E   23184.72259784  .00026847  00000+0  69100-3 0  9992
2 43666  97.3780 216.4298 0010365  73.1379 287.1003 15.39160390259743
CICERO 10               
1 43690U 18088A   23184.05564354  .00014944  00000+0  41049-3 0  9999
2 43690  85.0309  61.8217 0011412 159.8476 200.3227 15.37030614257913
PROXIMA I               
1 43694U 18088E   23184.05185915  .00018978  00000+0  47397-3 0  9998
2 43694  85.0237  57.4145 0014562 129.3788 230.8756 15.39916359258215
PROXIMA II              
1 43696U 18088G   23184.06698677  .00019075  00000+0  47853-3 0  9991
2 43696  85.0240  57.4554 0014683 129.6140 230.6411 15.39778975258210
SIRION PATHFINDER-2     
1 43759U 18099B   23184.14508365  .00001828  00000+0  15587-3 0  9992
2 43759  97.5726 245.3777 0014561  63.3350 296.9362 14.98871484250017
CORVUS BC4              
1 43767U 18099K   23184.11529211  .00003589  00000+0  30574-3 0  9990
2 43767  97.5664 243.2750 0012777  74.6282 285.6351 14.98319999249919
MOVE-II                 
1 43780U 18099Y   23183.93928200  .00007696  00000+0  55971-3 0  9996
2 43780  97.5692 247.6333 0009986 101.6585 258.5762 15.04055156250103
SPACEBEE-7              
1 43816U 18099BL  23183.93216224  .00006469  00000+0  48712-3 0  9994
2 43816  97.5962 248.4634 0011976  48.0286 312.1958 15.02783124249675
SPACEBEE-5              
1 43817U 18099BM  23183.91695120  .00026447  00000+0  12824-2 0  9991
2 43817  97.5917 256.0257 0003265  60.7570 299.3989 15.18483303250081
SPACEBEE-6              
1 43818U 18099BN  23184.71143531  .00009367  00000+0  63724-3 0  9993
2 43818  97.5895 251.3416 0013000  64.1395 296.1171 15.06469173250054
SHIELDS 1               
1 43850U 18104B   23184.64585713  .00006062  00000+0  21497-3 0  9990
2 43850  85.0269 158.4718 0010378 302.5026  57.5216 15.28800575252627
STF-1                   
1 43852U 18104D   23183.96757637  .00030145  00000+0  65790-3 0  9995
2 43852  85.0236 156.4361 0005691 305.4587  54.6136 15.44054553252838
ZACUBE-2                
1 43907U 18111AH  23184.69598936  .00021441  00000+0  51193-3 0  9991
2 43907  97.1361  63.9205 0016015 146.9809 213.2442 15.41407470251691
LUME 1                  
1 43908U 18111AJ  23183.92753481  .00026970  00000+0  52217-3 0  9995
2 43908  97.1380  66.9668 0014265 135.5770 224.6628 15.47586395251822
MOVE-IIB                
1 44398U 19038N   23184.52132770  .00043263  00000+0  99916-3 0  9998
2 44398  97.6583 168.1328 0011917 213.9833 146.0651 15.42332153221181
SONATE                  
1 44400U 19038Q   23184.67317387  .00007670  00000+0  34116-3 0  9990
2 44400  97.6839 162.6625 0018480 252.1267 107.7953 15.21639645220749
LUCKY-7                 
1 44406U 19038W   23184.46220602  .00009949  00000+0  40532-3 0  9996
2 44406  97.6802 163.7895 0016765 246.0070 113.9412 15.24560735220806
BEESAT 9                
1 44412U 19038AC  23184.42648388  .00018540  00000+0  62418-3 0  9998
2 44412  97.6736 165.6073 0013010 240.8653 119.1285 15.30747173220645
JAISAT-1                
1 44419U 19038F   23184.50371146  .00018194  00000+0  60702-3 0  9998
2 44419  97.6730 166.7772 0012383 236.1078 123.8985 15.31052375221032
DUCHIFAT-3              
1 44854U 19089C   23184.57899083  .00006637  00000+0  44517-3 0  9994
2 44854  36.9631 353.3048 0007693  85.8496 274.3127 15.06516413195302
EYESAT-NANO             
1 44877U 19092E   23184.08390693  .00042323  00000+0  92601-3 0  9991
2 44877  97.4563  14.8910 0006839  89.0603 271.1428 15.44000700196553
M2 PATHFINDER           
1 45727U 20037E   23184.47030177  .00001824  00000+0  17567-3 0  9997
2 45727  97.7574 358.9915 0011570 204.8415 155.2250 14.94140372163672
NETSAT-4                
1 46504U 20068U   23172.82401605  .00005378  00000+0  35642-3 0  9991
2 46504  97.7631 118.6792 0012174 145.7373 214.4642 15.07663542149605
NETSAT-3                
1 46505U 20068V   23172.85779764  .00006087  00000+0  40476-3 0  9998
2 46505  97.7618 118.5340 0010915 153.2632 206.9160 15.07495447149611
NETSAT-1                
1 46506U 20068W   23172.83541765  .00004621  00000+0  31108-3 0  9999
2 46506  97.7629 118.3892 0009153 159.3423 200.8176 15.07188226149604
NETSAT-2                
1 46507U 20068X   23172.82218988  .00005424  00000+0  36039-3 0  9997
2 46507  97.7618 118.4207 0008245 165.4184 194.7283 15.07597617149559
SAI-1 NANOCONNECT-2     
1 47701U 21015C   23184.46886066  .00046148  00000+0  80868-3 0  9995
2 47701  97.3853 268.1578 0008204 168.4521 191.6921 15.50413042130675
